HULIANWANG DIGUI-148    
1 67524U 26013C   26037.49848552  .00000045  00000+0  16372-3 0  9999
2 67524  50.0060 112.2692 0001035  28.5692 331.5262 13.86045850  2544
HULIANWANG DIGUI-149    
1 67525U 26013D   26038.36173685  .00000019  00000+0  14342-3 0  9991
2 67525  50.0093 108.8357 0000686  34.5919 325.5022 13.85279637  2661
HULIANWANG DIGUI-150    
1 67526U 26013E   26037.70708411  .00000031  00000+0  15093-3 0  9998
2 67526  50.0014 111.3671 0000359 322.4069  37.6803 13.86273245  2595
HULIANWANG DIGUI-151    
1 67527U 26013F   26038.71791799  .00000050  00000+0  16445-3 0  9995
2 67527  50.0094 107.3932 0000273  98.2307 261.8621 13.87467513  2714
HULIANWANG DIGUI-152    
1 67528U 26013G   26037.85000517  .00000045  00000+0  16244-3 0  9992
2 67528  49.9909 110.8762 0011338   5.9340 354.1690 13.86415145  2594
HULIANWANG DIGUI-153    
1 67529U 26013H   26038.49404899 -.00000103  00000+0  35564-4 0  9998
2 67529  50.0020 108.1828 0000526 103.0811 257.0145 13.86090346  2672
HULIANWANG DIGUI-154    
1 67530U 26013J   26038.34760552  .00000115  00000+0  22216-3 0  9996
2 67530  50.0072 108.7538 0000475 165.1685 194.9226 13.86545192  2657
CZ-12 R/B               
1 67531U 26013K   26038.51571581  .00000166  00000+0  16270-3 0  9997
2 67531  49.9922 105.6299 0068691 194.0204 165.8798 14.14457818  2718
STARLINK-36587          
1 67532U 26014A   26038.79772489  .00304092  00000+0  15252-2 0  9992
2 67532  97.2832 282.1932 0001772  85.6916 274.4554 15.80936403  3862
STARLINK-36417          
1 67533U 26014B   26038.83336806 -.00043205  00000+0 -29015-3 0  9998
2 67533  97.2838 282.2133 0001616  75.5937  84.9145 15.75197965  3889
STARLINK-36576          
1 67534U 26014C   26038.73303244  .00276142  00000+0  13903-2 0  9992
2 67534  97.2835 282.1278 0000810  61.5021 298.6329 15.80925519  3855
STARLINK-36574          
1 67535U 26014D   26038.79505303  .00182552  00000+0  93046-3 0  9997
2 67535  97.2839 282.1963 0001884 110.2597 249.8873 15.80898205  3867
